IRIDIUM 144             
1 43249U 18030A   25350.99522606 -.00000038  00000+0 -20811-4 0  9996
2 43249  86.3963   6.5663 0002254  94.4818 265.6636 14.34217171404027
IRIDIUM 149             
1 43250U 18030B   25351.00156790  .00000148  00000+0  45824-4 0  9999
2 43250  86.3966   6.5328 0002215  92.6220 267.5229 14.34217981404044
IRIDIUM 157             
1 43251U 18030C   25350.81129146  .00000248  00000+0  81489-4 0  9991
2 43251  86.3968   6.6615 0002201  87.8754 272.2694 14.34216699403997
IRIDIUM 140             
1 43252U 18030D   25350.96985500  .00000016  00000+0 -13874-5 0  9990
2 43252  86.3963   6.6080 0002160  95.1999 264.9444 14.34217203404079
IRIDIUM 145             
1 43253U 18030E   25350.95716785  .00000160  00000+0  49898-4 0  9990
2 43253  86.3968   6.5861 0002563  94.4442 265.7047 14.34215604404007
IRIDIUM 146             
1 43254U 18030F   25350.79860487  .00000287  00000+0  95538-4 0  9994
2 43254  86.3967   6.6652 0002395  92.7156 267.4314 14.34213477403991
IRIDIUM 148             
1 43255U 18030G   25350.97619799  .00000020  00000+0 -32805-7 0  9990
2 43255  86.3964   6.6311 0002152  89.0584 271.0858 14.34216672404058
IRIDIUM 142             
1 43256U 18030H   25350.94448588  .00000069  00000+0  17719-4 0  9990
2 43256  86.3965   6.5402 0002588  94.5736 265.5755 14.34217510404015
